#bP2006  9  9 21 00 00.00000000     121 BRDC* WGS84 R/T ****
## 1391 594000.00000000   900.00000000 53987 0.8750000000000
+   32   G01G02G03G04G05G06G07G08G09G10G11G12G13G14G15G16G17
+        G18G19G20G21G22G23G24G25G26G27G28G29G30G31G32  0  0
+          0  0  0  0  0  0  0  0  0  0  0  0  0  0  0  0  0
+          0  0  0  0  0  0  0  0  0  0  0  0  0  0  0  0  0
+          0  0  0  0  0  0  0  0  0  0  0  0  0  0  0  0  0
++         0  0  0  0  0  0  0  0  0  0  0  0  0  0  0  0  0
++         0  0  0  0  0  0  0  0  0  0  0  0  0  0  0  0  0
++         0  0  0  0  0  0  0  0  0  0  0  0  0  0  0  0  0
++         0  0  0  0  0  0  0  0  0  0  0  0  0  0  0  0  0
++         0  0  0  0  0  0  0  0  0  0  0  0  0  0  0  0  0
%c M  cc GPS ccc cccc cccc cccc cccc ccccc ccccc ccccc ccccc
%c cc cc ccc ccc cccc cccc cccc cccc ccccc ccccc ccccc ccccc
%f   .0000000   .000000000   .00000000000   .000000000000000
%f   .0000000   .000000000   .00000000000   .000000000000000
%i    0    0    0    0      0      0      0      0         0
%i    0    0    0    0      0      0      0      0         0
/* NOTE: CCCCCCCCCCCCCCCCCCCCCCCCCCCCCCCCCCCCCCCCCCCCCCCCCCC
/* CCCCCCCCCCCCCCCCCCCCCCCCCCCCCCCCCCCCCCCCCCCCCCCCCCCCCCCCC
/* CCCCCCCCCCCCCCCCCCCCCCCCCCCCCCCCCCCCCCCCCCCCCCCCCCCCCCCCC
/* CCCCCCCCCCCCCCCCCCCCCCCCCCCCCCCCCCCCCCCCCCCCCCCCCCCCCCCCC
*  2006 09 10 00 00 00.00000000
PG01  21237.401275  15762.516745   2993.246967     75.782696
PG02 -13038.636481 -14857.015585 -18088.905559     33.233883
PG03  24324.380655  11094.779428     24.240159     71.041529
PG04  -6083.630898 -24065.613603  -8980.408224    307.592901
PG05 -23056.489833  12194.176527   4317.918852    337.299857
PG06  -8988.944864  12961.994039 -21178.846498    597.025829
PG07  14555.312227  17823.183068 -12840.781227    528.410294
PG08    633.926910 -26306.708520    658.108621    -79.101930
PG09 -14384.293950   5859.813335  20940.898119     35.473137
PG10 -19747.433939  -2965.976040 -17761.047492     89.429449
PG11  14633.528130  -9512.580867  19896.443760    349.476403
PG12      0.000000      0.000000      0.000000 999999.999999
PG13   7631.109692 -12388.868771 -22313.910809     92.952769
PG14  10186.688796  18509.111924  16210.049208     -5.856886
PG15   -601.770975  26241.851650   1867.271712     -0.657436
PG16  16730.103717   6233.582138 -19625.315596     71.806298
PG17  -9582.977000 -18709.410466  16294.358312     96.269026
PG18 -13452.674165  18090.922476  13899.230903   -248.542426
PG19  23320.778722   5650.043651  11570.141744     14.401409
PG20  22734.951172 -13703.904982   -289.323626    -22.639944
PG21  -5512.312200  24860.394478  -6384.752005     51.806648
PG22    -95.331689  16651.156571  20846.937395    132.832829
PG23  18322.006863  -4427.023980 -18880.617039    137.824577
PG24   -852.937683 -26186.038211  -3074.282504     34.860577
PG25  11131.886204  19977.703246 -12984.295130    322.531314
PG26 -23831.206947  -7253.380378   9596.783238   -248.276994
PG27   4533.052917 -24314.401790  -8633.905132     67.056084
PG28   3753.178865 -17719.934446  19601.307918     19.053656
PG29      0.000000      0.000000      0.000000 999999.999999
PG30 -17307.949440  18247.191830  -8648.918742      9.525728
PG31      0.000000      0.000000      0.000000 999999.999999
PG32      0.000000      0.000000      0.000000 999999.999999
*  2006 09 10 00 15 00.00000000
PG01  20739.391893  15661.080660   5841.806854     75.785176
PG02 -12952.796357 -16786.877311 -16378.023152     33.237398
PG03  24073.398323  11343.075109  -2737.613244     71.111223
PG04  -5801.624299 -24951.340904  -6316.436119    307.598236
PG05 -22704.237479  11529.572190   7036.368040    337.312295
PG06 -11171.330291  11844.950696 -20799.967283    597.023260
PG07  12944.576576  17373.696103 -14960.530283    528.406638
PG08    883.069551 -26228.177577  -2247.557374    -79.103115
PG09 -14618.129337   3325.892701  21343.336906     35.474383
PG10 -18001.262123  -4118.599848 -19300.283652     89.429646
PG11  15172.944764  -7217.844937  20471.067699    349.478137
PG12      0.000000      0.000000      0.000000 999999.999999
PG13   9809.978107 -11135.614117 -22117.719634     92.955794
PG14   8434.799744  17668.156021  18051.571595     -5.856239
PG15   -909.432107  26294.412748  -1002.105278     -0.660124
PG16  14796.196111   7515.658178 -20685.714227     71.809262
PG17  -7781.868100 -17917.662747  18040.261433     96.268118
PG18 -14832.409950  18602.336132  11580.974503   -248.543241
PG19  24196.353935   6450.571381   9064.805137     14.404212
PG20  22762.853967 -13400.879594   2555.018960    -22.639727
PG21  -5841.176693  23951.192659  -9040.710868     51.808322
PG22  -2151.262537  17684.632896  19851.568338    132.835817
PG23  20070.337440  -3364.025872 -17260.705469    137.824689
PG24   -564.541854 -26396.026099   -214.817308     34.862804
PG25  11067.122941  21408.813674 -10600.358307    322.547765
PG26 -24620.674525  -7845.384335   6923.469690   -248.290166
PG27   4913.780245 -23121.521173 -11181.447472     67.057850
PG28   5641.635905 -18684.042981  18148.280574     19.052899
PG29      0.000000      0.000000      0.000000 999999.999999
PG30 -18136.720920  18461.655240  -5986.182770      9.526914
PG31      0.000000      0.000000      0.000000 999999.999999
PG32      0.000000      0.000000      0.000000 999999.999999
*  2006 09 10 00 30 00.00000000
PG01  19955.325108  15443.727376   8590.701602     75.787605
PG02 -12945.543456 -18513.264567 -14392.530393     33.240915
PG03  23546.619018  11499.996908  -5453.365062     71.180883
PG04  -5539.604222 -25541.544755  -3541.576247    307.603578
PG05 -22153.357032  10653.328505   9631.738223    337.324751
PG06 -13344.441317  10857.671205 -20057.255522    597.020683
PG07  11101.156625  16918.681612 -16815.986328    528.402970
PG08   1151.547506 -25833.059867  -5113.577786    -79.104283
PG09 -14982.490636    785.081169  21358.037902     35.475612
PG10 -16191.090068  -5452.906815 -20512.999572     89.429866
PG11  15816.703618  -4906.471944  20690.387745    349.479865
PG12      0.000000      0.000000      0.000000 999999.999999
PG13  12018.603364 -10028.402388 -21544.157468     92.958821
PG14   6465.695505  16845.747685  19584.896829     -5.855597
PG15  -1218.490795  26035.491055  -3853.792505     -0.662812
PG16  12848.753904   8955.086702 -21388.552878     71.812231
PG17  -5777.836003 -17145.427433  19476.774583     96.267211
PG18 -15955.477247  19034.105312   9061.172160   -248.544062
PG19  24855.590570   7067.706547   6404.710597     14.407014
PG20  22547.497403 -12911.671040   5355.266080    -22.639506
PG21  -6228.735592  22765.029999 -11535.669776     51.809997
PG22  -4041.720995  18752.724615  18518.918147    132.838808
PG23  21691.994656  -2479.826891 -15347.881897    137.824800
PG24   -275.782872 -26294.464287   2648.434356     34.865081
PG25  11023.931676  22560.426842  -8029.108652    322.564280
PG26 -25166.405549  -8251.107589   4133.481370   -248.303340
PG27   5400.846555 -21667.705972 -13527.321561     67.059648
PG28   7331.587434 -19645.071978  16386.148757     19.052137
PG29      0.000000      0.000000      0.000000 999999.999999
PG30 -18712.490536  18529.830984  -3220.479744      9.528085
PG31      0.000000      0.000000      0.000000 999999.999999
PG32      0.000000      0.000000      0.000000 999999.999999
*  2006 09 10 00 45 00.00000000
PG01  18883.414566  15151.517420  11193.336273     75.789971
PG02 -12988.073948 -20005.949598 -12165.540509     33.244431
PG03  22741.556173  11600.290750  -8077.410357     71.250508
PG04  -5261.523879 -25827.617077   -704.473417    307.608923
PG05 -21439.043262   9552.872517  12058.324134    337.337231
PG06 -15462.176300  10009.154986 -18964.081831    597.018093
PG07   9050.850627  16492.505102 -18373.766401    528.399291
PG08   1476.691534 -25132.690266  -7889.586581    -79.105436
PG09 -15470.386317  -1710.617661  20985.555368     35.476828
PG10 -14362.436755  -6957.294681 -21378.078241     89.430109
PG11  16556.272222  -2622.011983  20551.326261    349.481589
PG12      0.000000      0.000000      0.000000 999999.999999
PG13  14208.471569  -9082.009488 -20602.799839     92.961847
PG14   4309.441546  16078.983981  20783.846575     -5.854959
PG15  -1565.341391  25472.078768  -6637.551770     -0.665502
PG16  10932.208370  10531.827136 -21721.253330     71.815207
PG17  -3601.423386 -16427.095810  20579.021571     96.266298
PG18 -16819.549058  19345.818117   6383.274042   -248.544892
PG19  25266.994293   7523.937309   3635.164401     14.409815
PG20  22117.334829 -12212.296963   8063.006824    -22.639281
PG21  -6704.579018  21328.154268 -13825.474513     51.811666
PG22  -5740.512849  19818.032470  16871.283713    132.841801
PG23  23143.569367  -1766.158325 -13174.696617    137.824907
PG24     50.116879 -25886.518663   5465.445942     34.867410
PG25  10965.946686  23418.194580  -5316.508334    322.580863
PG26 -25441.505725  -8500.077093   1274.229838   -248.316517
PG27   6019.184398 -19986.754246 -15628.104695     67.061470
PG28   8804.031179 -20561.928419  14343.685144     19.051370
PG29      0.000000      0.000000      0.000000 999999.999999
PG30 -19048.125957  18417.253004   -399.191953      9.529236
PG31      0.000000      0.000000      0.000000 999999.999999
PG32      0.000000      0.000000      0.000000 999999.999999
EOF
